IRIDIUM 921 [-]         
1 24873U 97034E   23335.58713534  .00026555  00000+0  95580-3 0  9991
2 24873  86.3875  25.4586 0002350 295.7493  64.3512 15.28465406445030
IRIDIUM 26 [-]          
1 24903U 97043A   23334.58406410  .00001002  00000+0  33784-3 0  9994
2 24903  86.3957 347.5187 0002269  95.5977 264.5478 14.36101583376154
IRIDIUM 22 [-]          
1 24907U 97043E   23335.60193806  .00000808  00000+0  27707-3 0  9995
2 24907  86.3963 350.1703 0002113  90.3939 269.7500 14.35007768375913
DUMMY MASS 1 [-]        
1 24925U 97048A   23335.68838497  .00000895  00000+0  99455-4 0  9996
2 24925  86.3367  35.6719 0006522   3.1424 356.9840 14.85950081421662
DUMMY MASS 2 [-]        
1 24926U 97048B   23335.69290275  .00000882  00000+0  98500-4 0  9990
2 24926  86.3367  37.1777 0007844  11.3666 348.7734 14.85710950421458
IRIDIUM 29 [-]          
1 24944U 97051A   23335.59798696  .00000889  00000+0  30258-3 0  9995
2 24944  86.3978  20.1293 0001907  87.5016 272.6398 14.35464670372613
IRIDIUM 33 [-]          
1 24946U 97051C   23334.67604842  .00000620  00000+0  21439-3 0  9998
2 24946  86.3893  19.7856 0009854 114.6082 245.6141 14.34190448371820
IRIDIUM 28 [-]          
1 24948U 97051E   23335.59340733  .00000790  00000+0  26313-3 0  9992
2 24948  86.3983  17.9718 0002514  99.9216 260.2264 14.36407636372988
